{"type": "FeatureCollection", "features": [ {"type": "Feature", "properties": {"norad_id": 35593, "name": "COSMOS 2251 DEB", "group": "cosmos-2251-debris", "lat": -10.353347095790825, "lon": -77.6680447624183, "alt_km": 769.5840514664023, "timestamp": "2025-12-14T11:29:50.456606+00:00", "meta": {"OBJECT_NAME": "COSMOS 2251 DEB", "OBJECT_ID": "1993-036AML", "EPOCH": "2025-12-13T13:39:11.240640", "MEAN_MOTION": 14.25601821, "ECCENTRICITY": 0.0105204, "INCLINATION": 74.0858, "RA_OF_ASC_NODE": 286.9573, "ARG_OF_PERICENTER": 293.2904, "MEAN_ANOMALY": 65.7198, "EPHEMERIS_TYPE": 0, "CLASSIFICATION_TYPE": "U", "NORAD_CAT_ID": 35593, "ELEMENT_SET_NO": 999, "REV_AT_EPOCH": 85077, "BSTAR": 0.0011605739, "MEAN_MOTION_DOT": 2.887e-05, "MEAN_MOTION_DDOT": 0}, "tle": {"line1": "1 35593U 93036AML 25347.56888010  .00002887  00000+0  11606-2 0  9993", "line2": "2 35593  74.0858 286.9573 0105204 293.2904  65.7198 14.25601821850773"}}, "geometry": {"type": "Point", "coordinates": [-77.6680447624183, -10.353347095790825]}}, {"type": "Feature", "properties": {"norad_id": 35594, "name": "COSMOS 2251 DEB", "group": "cosmos-2251-debris", "lat": -36.2729861724353, "lon": 90.70942269903242, "alt_km": 616.5174478685476, "timestamp": "2025-12-14T11:29:50.456616+00:00", "meta": {"OBJECT_NAME": "COSMOS 2251 DEB", "OBJECT_ID": "1993-036AMM", "EPOCH": "2025-12-11T07:49:43.768128", "MEAN_MOTION": 14.87869065, "ECCENTRICITY": 0.00302327, "INCLINATION": 73.8067, "RA_OF_ASC_NODE": 109.3962, "ARG_OF_PERICENTER": 220.7507, "MEAN_ANOMALY": 139.1411, "EPHEMERIS_TYPE": 0, "CLASSIFICATION_TYPE": "U", "NORAD_CAT_ID": 35594, "ELEMENT_SET_NO": 999, "REV_AT_EPOCH": 88164, "BSTAR": 0.003372362, "MEAN_MOTION_DOT": 0.00031222, "MEAN_MOTION_DDOT": 0}, "tle": {"line1": "1 35594U 93036AMM 25345.32620102  .00031222  00000+0  33724-2 0  9992", "line2": "2 35594  73.8067 109.3962 0030232 220.7507 139.1411 14.87869065881643"}}, "geometry": {"type": "Point", "coordinates": [90.70942269903242, -36.2729861724353]}}, {"type": "Feature", "properties": {"norad_id": 35602, "name": "COSMOS 2251 DEB", "group": "cosmos-2251-debris", "lat": 7.099850630661068, "lon": -179.47779613468282, "alt_km": 495.9346886013227, "timestamp": "2025-12-14T11:29:50.456626+00:00", "meta": {"OBJECT_NAME": "COSMOS 2251 DEB", "OBJECT_ID": "1993-036AMV", "EPOCH": "2025-12-12T07:03:29.388096", "MEAN_MOTION": 15.3505049, "ECCENTRICITY": 0.00899184, "INCLINATION": 73.9939, "RA_OF_ASC_NODE": 183.1705, "ARG_OF_PERICENTER": 249.0477, "MEAN_ANOMALY": 287.9507, "EPHEMERIS_TYPE": 0, "CLASSIFICATION_TYPE": "U", "NORAD_CAT_ID": 35602, "ELEMENT_SET_NO": 999, "REV_AT_EPOCH": 90084, "BSTAR": 0.00062858431, "MEAN_MOTION_DOT": 0.00024456, "MEAN_MOTION_DDOT": 0}, "tle": {"line1": "1 35602U 93036AMV 25346.29409014  .00024456  00000+0  62858-3 0  9998", "line2": "2 35602  73.9939 183.1705 0089918 249.0477 287.9507 15.35050490900842"}}, "geometry": {"type": "Point", "coordinates": [-179.47779613468282, 7.099850630661068]}}, {"type": "Feature", "properties": {"norad_id": 35605, "name": "COSMOS 2251 DEB", "group": "cosmos-2251-debris", "lat": 48.96834092727877, "lon": -7.7228131882017665, "alt_km": 469.8586914759735, "timestamp": "2025-12-14T11:29:50.456636+00:00", "meta": {"OBJECT_NAME": "COSMOS 2251 DEB", "OBJECT_ID": "1993-036AMY", "EPOCH": "2025-12-13T05:33:00.611712", "MEAN_MOTION": 15.34448038, "ECCENTRICITY": 0.00255309, "INCLINATION": 73.8715, "RA_OF_ASC_NODE": 335.5566, "ARG_OF_PERICENTER": 266.9711, "MEAN_ANOMALY": 92.8571, "EPHEMERIS_TYPE": 0, "CLASSIFICATION_TYPE": "U", "NORAD_CAT_ID": 35605, "ELEMENT_SET_NO": 999, "REV_AT_EPOCH": 65979, "BSTAR": 0.010289697, "MEAN_MOTION_DOT": 0.0036361, "MEAN_MOTION_DDOT": 0}, "tle": {"line1": "1 35605U 93036AMY 25347.23125708  .00363610  00000+0  10290-1 0  9990", "line2": "2 35605  73.8715 335.5566 0025530 266.9711  92.8571 15.34448038659790"}}, "geometry": {"type": "Point", "coordinates": [-7.7228131882017665, 48.96834092727877]}}, {"type": "Feature", "properties": {"norad_id": 35606, "name": "COSMOS 2251 DEB", "group": "cosmos-2251-debris", "lat": -35.44234370051122, "lon": -3.904261056795444, "alt_km": 1210.752837041754, "timestamp": "2025-12-14T11:29:50.456646+00:00", "meta": {"OBJECT_NAME": "COSMOS 2251 DEB", "OBJECT_ID": "1993-036AMZ", "EPOCH": "2025-12-09T08:10:26.094720", "MEAN_MOTION": 13.41205491, "ECCENTRICITY": 0.04577322, "INCLINATION": 73.8107, "RA_OF_ASC_NODE": 16.2149, "ARG_OF_PERICENTER": 222.4362, "MEAN_ANOMALY": 134.0496, "EPHEMERIS_TYPE": 0, "CLASSIFICATION_TYPE": "U", "NORAD_CAT_ID": 35606, "ELEMENT_SET_NO": 999, "REV_AT_EPOCH": 60994, "BSTAR": 0.0014727579, "MEAN_MOTION_DOT": 1.492e-05, "MEAN_MOTION_DDOT": 0}, "tle": {"line1": "1 35606U 93036AMZ 25343.34057980  .00001492  00000+0  14728-2 0  9993", "line2": "2 35606  73.8107  16.2149 0457732 222.4362 134.0496 13.41205491609945"}}, "geometry": {"type": "Point", "coordinates": [-3.904261056795444, -35.44234370051122]}}, {"type": "Feature", "properties": {"norad_id": 35611, "name": "COSMOS 2251 DEB", "group": "cosmos-2251-debris", "lat": -5.637146905203443, "lon": -2.467674030370824, "alt_km": 648.1318367359054, "timestamp": "2025-12-14T11:29:50.456656+00:00", "meta": {"OBJECT_NAME": "COSMOS 2251 DEB", "OBJECT_ID": "1993-036ANE", "EPOCH": "2025-12-12T13:00:38.936448", "MEAN_MOTION": 14.7284119, "ECCENTRICITY": 0.00216473, "INCLINATION": 74.0197, "RA_OF_ASC_NODE": 179.6861, "ARG_OF_PERICENTER": 252.7152, "MEAN_ANOMALY": 107.1652, "EPHEMERIS_TYPE": 0, "CLASSIFICATION_TYPE": "U", "NORAD_CAT_ID": 35611, "ELEMENT_SET_NO": 999, "REV_AT_EPOCH": 87287, "BSTAR": 0.0030110834, "MEAN_MOTION_DOT": 0.00019366, "MEAN_MOTION_DDOT": 0}, "tle": {"line1": "1 35611U 93036ANE 25346.54211732  .00019366  00000+0  30111-2 0  9994", "line2": "2 35611  74.0197 179.6861 0021647 252.7152 107.1652 14.72841190872879"}}, "geometry": {"type": "Point", "coordinates": [-2.467674030370824, -5.637146905203443]}}, {"type": "Feature", "properties": {"norad_id": 35614, "name": "COSMOS 2251 DEB", "group": "cosmos-2251-debris", "lat": -73.94876827642808, "lon": -125.96637485541586, "alt_km": 678.7737146945992, "timestamp": "2025-12-14T11:29:50.456665+00:00", "meta": {"OBJECT_NAME": "COSMOS 2251 DEB", "OBJECT_ID": "1993-036ANH", "EPOCH": "2025-12-13T06:27:06.231168", "MEAN_MOTION": 14.67025191, "ECCENTRICITY": 0.00756959, "INCLINATION": 73.9589, "RA_OF_ASC_NODE": 326.4366, "ARG_OF_PERICENTER": 180.7813, "MEAN_ANOMALY": 179.3251, "EPHEMERIS_TYPE": 0, "CLASSIFICATION_TYPE": "U", "NORAD_CAT_ID": 35614, "ELEMENT_SET_NO": 999, "REV_AT_EPOCH": 87737, "BSTAR": 0.0013853104, "MEAN_MOTION_DOT": 8.085e-05, "MEAN_MOTION_DDOT": 0}, "tle": {"line1": "1 35614U 93036ANH 25347.26882212  .00008085  00000+0  13853-2 0  9994", "line2": "2 35614  73.9589 326.4366 0075695 180.7813 179.3251 14.67025191877378"}}, "geometry": {"type": "Point", "coordinates": [-125.96637485541586, -73.94876827642808]}}, {"type": "Feature", "properties": {"norad_id": 35645, "name": "COSMOS 2251 DEB", "group": "cosmos-2251-debris", "lat": -32.97224575726176, "lon": -84.77226106693679, "alt_km": 701.7767113485652, "timestamp": "2025-12-14T11:29:50.456675+00:00", "meta": {"OBJECT_NAME": "COSMOS 2251 DEB", "OBJECT_ID": "1993-036ANL", "EPOCH": "2025-12-13T14:34:24.235680", "MEAN_MOTION": 14.45604624, "ECCENTRICITY": 0.00695566, "INCLINATION": 73.964, "RA_OF_ASC_NODE": 86.1067, "ARG_OF_PERICENTER": 243.7291, "MEAN_ANOMALY": 115.6708, "EPHEMERIS_TYPE": 0, "CLASSIFICATION_TYPE": "U", "NORAD_CAT_ID": 35645, "ELEMENT_SET_NO": 999, "REV_AT_EPOCH": 86784, "BSTAR": 0.0025198742, "MEAN_MOTION_DOT": 9.157e-05, "MEAN_MOTION_DDOT": 0}, "tle": {"line1": "1 35645U 93036ANL 25347.60722495  .00009157  00000+0  25199-2 0  9999", "line2": "2 35645  73.9640  86.1067 0069556 243.7291 115.6708 14.45604624867848"}}, "geometry": {"type": "Point", "coordinates": [-84.77226106693679, -32.97224575726176]}}, {"type": "Feature", "properties": {"norad_id": 35646, "name": "COSMOS 2251 DEB", "group": "cosmos-2251-debris", "lat": -24.908863152360265, "lon": -119.00945684719946, "alt_km": 853.2015708378703, "timestamp": "2025-12-14T11:29:50.456686+00:00", "meta": {"OBJECT_NAME": "COSMOS 2251 DEB", "OBJECT_ID": "1993-036ANM", "EPOCH": "2025-12-13T13:21:32.156352", "MEAN_MOTION": 13.40823604, "ECCENTRICITY": 0.04568506, "INCLINATION": 73.8726, "RA_OF_ASC_NODE": 54.7323, "ARG_OF_PERICENTER": 164.7809, "MEAN_ANOMALY": 266.7157, "EPHEMERIS_TYPE": 0, "CLASSIFICATION_TYPE": "U", "NORAD_CAT_ID": 35646, "ELEMENT_SET_NO": 999, "REV_AT_EPOCH": 81869, "BSTAR": 0.0010671765, "MEAN_MOTION_DOT": 1.068e-05, "MEAN_MOTION_DDOT": 0}, "tle": {"line1": "1 35646U 93036ANM 25347.55662218  .00001068  00000+0  10672-2 0  9993", "line2": "2 35646  73.8726  54.7323 0456850 164.7809 266.7157 13.40823604818693"}}, "geometry": {"type": "Point", "coordinates": [-119.00945684719946, -24.908863152360265]}}, {"type": "Feature", "properties": {"norad_id": 35647, "name": "COSMOS 2251 DEB", "group": "cosmos-2251-debris", "lat": -73.70469036772936, "lon": -147.19988843717616, "alt_km": 767.9423417823327, "timestamp": "2025-12-14T11:29:50.456696+00:00", "meta": {"OBJECT_NAME": "COSMOS 2251 DEB", "OBJECT_ID": "1993-036ANN", "EPOCH": "2025-12-13T14:16:38.061408", "MEAN_MOTION": 14.43640489, "ECCENTRICITY": 0.00455628, "INCLINATION": 74.0232, "RA_OF_ASC_NODE": 292.9744, "ARG_OF_PERICENTER": 31.8432, "MEAN_ANOMALY": 328.5464, "EPHEMERIS_TYPE": 0, "CLASSIFICATION_TYPE": "U", "NORAD_CAT_ID": 35647, "ELEMENT_SET_NO": 999, "REV_AT_EPOCH": 67676, "BSTAR": 0.0011040482, "MEAN_MOTION_DOT": 3.768e-05, "MEAN_MOTION_DDOT": 0}, "tle": {"line1": "1 35647U 93036ANN 25347.59488497  .00003768  00000+0  11040-2 0  9992", "line2": "2 35647  74.0232 292.9744 0045562  31.8432 328.5464 14.43640489676762"}}, "geometry": {"type": "Point", "coordinates": [-147.19988843717616, -73.70469036772936]}}]}